<?xml version="1.0" encoding="UTF-8"?>
<gpx version="1.1" creator="RoadLens Demo" xmlns="http://www.topografix.com/GPX/1/1">
  <trk><name>ORR Marathahalli-Bellandur demo trip</name><trkseg>
      <trkpt lat="12.953980" lon="77.701250"><time>2026-08-25T09:12:00Z</time></trkpt>
      <trkpt lat="12.953581" lon="77.700931"><time>2026-08-25T09:12:01Z</time></trkpt>
      <trkpt lat="12.953181" lon="77.700613"><time>2026-08-25T09:12:02Z</time></trkpt>
      <trkpt lat="12.952782" lon="77.700294"><time>2026-08-25T09:12:03Z</time></trkpt>
      <trkpt lat="12.952382" lon="77.699975"><time>2026-08-25T09:12:04Z</time></trkpt>
      <trkpt lat="12.951983" lon="77.699657"><time>2026-08-25T09:12:05Z</time></trkpt>
      <trkpt lat="12.951583" lon="77.699338"><time>2026-08-25T09:12:06Z</time></trkpt>
      <trkpt lat="12.951184" lon="77.699019"><time>2026-08-25T09:12:07Z</time></trkpt>
      <trkpt lat="12.950784" lon="77.698701"><time>2026-08-25T09:12:08Z</time></trkpt>
      <trkpt lat="12.950385" lon="77.698382"><time>2026-08-25T09:12:09Z</time></trkpt>
      <trkpt lat="12.949985" lon="77.698064"><time>2026-08-25T09:12:10Z</time></trkpt>
      <trkpt lat="12.949586" lon="77.697745"><time>2026-08-25T09:12:11Z</time></trkpt>
      <trkpt lat="12.949186" lon="77.697426"><time>2026-08-25T09:12:12Z</time></trkpt>
      <trkpt lat="12.948787" lon="77.697108"><time>2026-08-25T09:12:13Z</time></trkpt>
      <trkpt lat="12.948387" lon="77.696789"><time>2026-08-25T09:12:14Z</time></trkpt>
      <trkpt lat="12.947988" lon="77.696470"><time>2026-08-25T09:12:15Z</time></trkpt>
      <trkpt lat="12.947588" lon="77.696152"><time>2026-08-25T09:12:16Z</time></trkpt>
      <trkpt lat="12.947189" lon="77.695833"><time>2026-08-25T09:12:17Z</time></trkpt>
      <trkpt lat="12.946789" lon="77.695514"><time>2026-08-25T09:12:18Z</time></trkpt>
      <trkpt lat="12.946390" lon="77.695196"><time>2026-08-25T09:12:19Z</time></trkpt>
      <trkpt lat="12.945990" lon="77.694877"><time>2026-08-25T09:12:20Z</time></trkpt>
      <trkpt lat="12.945591" lon="77.694558"><time>2026-08-25T09:12:21Z</time></trkpt>
      <trkpt lat="12.945191" lon="77.694240"><time>2026-08-25T09:12:22Z</time></trkpt>
      <trkpt lat="12.944792" lon="77.693921"><time>2026-08-25T09:12:23Z</time></trkpt>
      <trkpt lat="12.944392" lon="77.693603"><time>2026-08-25T09:12:24Z</time></trkpt>
      <trkpt lat="12.943993" lon="77.693284"><time>2026-08-25T09:12:25Z</time></trkpt>
      <trkpt lat="12.943593" lon="77.692965"><time>2026-08-25T09:12:26Z</time></trkpt>
      <trkpt lat="12.943194" lon="77.692647"><time>2026-08-25T09:12:27Z</time></trkpt>
      <trkpt lat="12.942794" lon="77.692328"><time>2026-08-25T09:12:28Z</time></trkpt>
      <trkpt lat="12.942395" lon="77.692009"><time>2026-08-25T09:12:29Z</time></trkpt>
      <trkpt lat="12.941995" lon="77.691691"><time>2026-08-25T09:12:30Z</time></trkpt>
      <trkpt lat="12.941596" lon="77.691372"><time>2026-08-25T09:12:31Z</time></trkpt>
      <trkpt lat="12.941196" lon="77.691053"><time>2026-08-25T09:12:32Z</time></trkpt>
      <trkpt lat="12.940797" lon="77.690735"><time>2026-08-25T09:12:33Z</time></trkpt>
      <trkpt lat="12.940397" lon="77.690416"><time>2026-08-25T09:12:34Z</time></trkpt>
      <trkpt lat="12.939998" lon="77.690097"><time>2026-08-25T09:12:35Z</time></trkpt>
      <trkpt lat="12.939598" lon="77.689779"><time>2026-08-25T09:12:36Z</time></trkpt>
      <trkpt lat="12.939199" lon="77.689460"><time>2026-08-25T09:12:37Z</time></trkpt>
      <trkpt lat="12.938799" lon="77.689142"><time>2026-08-25T09:12:38Z</time></trkpt>
      <trkpt lat="12.938400" lon="77.688823"><time>2026-08-25T09:12:39Z</time></trkpt>
      <trkpt lat="12.938000" lon="77.688504"><time>2026-08-25T09:12:40Z</time></trkpt>
      <trkpt lat="12.937601" lon="77.688186"><time>2026-08-25T09:12:41Z</time></trkpt>
      <trkpt lat="12.937201" lon="77.687867"><time>2026-08-25T09:12:42Z</time></trkpt>
      <trkpt lat="12.936802" lon="77.687548"><time>2026-08-25T09:12:43Z</time></trkpt>
      <trkpt lat="12.936402" lon="77.687230"><time>2026-08-25T09:12:44Z</time></trkpt>
      <trkpt lat="12.936003" lon="77.686911"><time>2026-08-25T09:12:45Z</time></trkpt>
      <trkpt lat="12.935603" lon="77.686592"><time>2026-08-25T09:12:46Z</time></trkpt>
      <trkpt lat="12.935204" lon="77.686274"><time>2026-08-25T09:12:47Z</time></trkpt>
      <trkpt lat="12.934804" lon="77.685955"><time>2026-08-25T09:12:48Z</time></trkpt>
      <trkpt lat="12.934405" lon="77.685636"><time>2026-08-25T09:12:49Z</time></trkpt>
      <trkpt lat="12.934005" lon="77.685318"><time>2026-08-25T09:12:50Z</time></trkpt>
      <trkpt lat="12.933606" lon="77.684999"><time>2026-08-25T09:12:51Z</time></trkpt>
      <trkpt lat="12.933206" lon="77.684681"><time>2026-08-25T09:12:52Z</time></trkpt>
      <trkpt lat="12.932807" lon="77.684362"><time>2026-08-25T09:12:53Z</time></trkpt>
      <trkpt lat="12.932407" lon="77.684043"><time>2026-08-25T09:12:54Z</time></trkpt>
      <trkpt lat="12.932008" lon="77.683725"><time>2026-08-25T09:12:55Z</time></trkpt>
      <trkpt lat="12.931608" lon="77.683406"><time>2026-08-25T09:12:56Z</time></trkpt>
      <trkpt lat="12.931209" lon="77.683087"><time>2026-08-25T09:12:57Z</time></trkpt>
      <trkpt lat="12.930809" lon="77.682769"><time>2026-08-25T09:12:58Z</time></trkpt>
      <trkpt lat="12.930410" lon="77.682450"><time>2026-08-25T09:12:59Z</time></trkpt>
  </trkseg></trk>
</gpx>